[{"OBJECT_NAME":"YAOGAN-33 01","OBJECT_ID":"2020-103A","EPOCH":"2026-03-09T23:33:33.988896","MEAN_MOTION":14.58835093,"ECCENTRICITY":0.00042815,"INCLINATION":98.0558,"RA_OF_ASC_NODE":313.645,"ARG_OF_PERICENTER":85.5228,"MEAN_ANOMALY":274.646,"EPHEMERIS_TYPE":0,"CLASSIFICATION_TYPE":"U","NORAD_CAT_ID":47302,"ELEMENT_SET_NO":999,"REV_AT_EPOCH":27684,"BSTAR":0.00014306185,"MEAN_MOTION_DOT":6.25e-6,"MEAN_MOTION_DDOT":0},{"OBJECT_NAME":"FENGYUN 1C DEB","OBJECT_ID":"1999-025WE","EPOCH":"2026-03-09T19:42:18.012384","MEAN_MOTION":14.46050841,"ECCENTRICITY":0.01452421,"INCLINATION":98.9476,"RA_OF_ASC_NODE":166.3185,"ARG_OF_PERICENTER":140.9527,"MEAN_ANOMALY":220.2256,"EPHEMERIS_TYPE":0,"CLASSIFICATION_TYPE":"U","NORAD_CAT_ID":30221,"ELEMENT_SET_NO":999,"REV_AT_EPOCH":660,"BSTAR":0.00041833951,"MEAN_MOTION_DOT":1.646e-5,"MEAN_MOTION_DDOT":0}]
